*******************************************************************************
 Revised: July 31, 2013             Moon / (Earth)                          301
 
 GEOPHYSICAL DATA (updated 2018-Aug-15):
  Vol. mean radius, km  = 1737.53+-0.03    Mass, x10^22 kg       =    7.349
  Radius (gravity), km  = 1738.0           Surface emissivity    =    0.92
  Radius (IAU), km      = 1737.4           GM, km^3/s^2          = 4902.800066
  Density, g/cm^3       =    3.3437        GM 1-sigma, km^3/s^2  =  +-0.0001  
  V(1,0)                =   +0.21          Surface accel., m/s^2 =    1.62
  Earth/Moon mass ratio = 81.3005690769    Farside crust. thick. = ~80 - 90 km
  Mean crustal density  = 2.97+-.07 g/cm^3 Nearside crust. thick.= 58+-8 km 
  Heat flow, Apollo 15  = 3.1+-.6 mW/m^2   Mean angular diameter = 31'05.2"
  Heat flow, Apollo 17  = 2.2+-.5 mW/m^2   Sid. rot. rate, rad/s = 0.0000026617
  Geometric Albedo      = 0.12             Mean solar day        = 29.5306 d
  Obliquity to orbit    = 6.67 deg         Orbit period          = 27.321582 d
  Semi-major axis, a    = 384400 km        Eccentricity          = 0.05490
  Mean motion, rad/s    = 2.6616995x10^-6  Inclination           = 5.145 deg
  Apsidal period        = 3231.50 d        Nodal period          = 6798.38 d
                                 Perihelion  Aphelion    Mean
  Solar Constant (W/m^2)         1414+-7     1323+-7     1368+-7
  Maximum Planetary IR (W/m^2)   1314        1226        1268
  Minimum Planetary IR (W/m^2)      5.2         5.2         5.2
 *******************************************************************************
 
 
*******************************************************************************
Ephemeris / WWW_USER Mon May  4 10:14:09 2020 Pasadena, USA      / Horizons    
*******************************************************************************
Target body name: Moon (301)                      {source: DE431mx}
Center body name: Sun (10)                        {source: DE431mx}
Center-site name: BODY CENTER
*******************************************************************************
Start time      : A.D. 2019-Oct-15 00:00:00.0000 TDB
Stop  time      : A.D. 2149-Oct-15 00:00:00.0000 TDB
Step-size       : 138240 minutes
*******************************************************************************
Center geodetic : 0.00000000,0.00000000,0.0000000 {E-lon(deg),Lat(deg),Alt(km)}
Center cylindric: 0.00000000,0.00000000,0.0000000 {E-lon(deg),Dxy(km),Dz(km)}
Center radii    : 696000.0 x 696000.0 x 696000.0 k{Equator, meridian, pole}    
Output units    : AU-D                                                         
Output type     : GEOMETRIC cartesian states
Output format   : 2 (position and velocity)
Reference frame : ICRF/J2000.0                                                 
Coordinate systm: Ecliptic and Mean Equinox of Reference Epoch                 
*******************************************************************************
            JDTDB,            Calendar Date (TDB),                      X,                      Y,                      Z,                     VX,                     VY,                     VZ,
**************************************************************************************************************************************************************************************************
$$SOE
2465107.500000000, A.D. 2037-Feb-18 00:00:00.0000, -8.458349369934022E-01,  5.067211380551396E-01, -2.311978983484414E-04, -9.106817647643331E-03, -1.428121149699524E-02, -2.920849190544404E-05,
2465203.500000000, A.D. 2037-May-25 00:00:00.0000, -4.522636682365214E-01, -9.077281840897988E-01,  2.808973677579326E-04,  1.522350567263565E-02, -8.307220420131021E-03,  2.059217126097741E-05,
2465299.500000000, A.D. 2037-Aug-29 00:00:00.0000,  9.216466868432260E-01, -4.183963748564977E-01, -2.002003614836515E-04,  6.749853092997955E-03,  1.613300840119495E-02, -1.575578521516666E-05,
2465395.500000000, A.D. 2037-Dec-03 00:00:00.0000,  3.247042215755840E-01,  9.293292750432521E-01,  1.365750594709076E-04, -1.632459194411824E-02,  5.059894947352801E-03,  1.739203523495819E-06,
2465491.500000000, A.D. 2038-Mar-09 00:00:00.0000, -9.684516178377890E-01,  2.076536214414560E-01, -2.462862316716452E-04, -4.060649590062241E-03, -1.637663599869676E-02,  4.951031205242289E-06,
2465587.500000000, A.D. 2038-Jun-13 00:00:00.0000, -1.507099528729982E-01, -1.005577885340258E+00,  3.010739628600639E-04,  1.701340584467085E-02, -3.129484154356693E-03, -1.588939509720645E-05,
2465683.500000000, A.D. 2038-Sep-17 00:00:00.0000,  1.001456792465794E+00, -1.090562891367824E-01, -2.084030185998490E-04,  1.320801767818502E-03,  1.750574802248071E-02,  1.935344814543778E-05,
2465779.500000000, A.D. 2038-Dec-22 00:00:00.0000,  3.545748725392598E-03,  9.824126355307076E-01,  1.006083603276012E-04, -1.712656100349676E-02, -4.654296499326189E-04, -3.237607493146732E-05,
2465875.500000000, A.D. 2039-Mar-28 00:00:00.0000, -9.892266679876967E-01, -1.134109534677328E-01, -1.368717325941757E-04,  1.336847929189357E-03, -1.674101771125855E-02,  3.732690786472685E-05,
2465971.500000000, A.D. 2039-Jul-02 00:00:00.0000,  1.655795211996258E-01, -1.004417546587583E+00,  2.262716317163490E-04,  1.712052266151939E-02,  2.334638894128629E-03, -4.557699850161692E-05,
2466067.500000000, A.D. 2039-Oct-06 00:00:00.0000,  9.794683623414064E-01,  2.111079673745455E-01, -1.084332651746325E-04, -4.317391073467038E-03,  1.709817902064986E-02,  4.463731148795966E-05,
2466163.500000000, A.D. 2040-Jan-10 00:00:00.0000, -3.181216944936033E-01,  9.291468423460750E-01, -2.766972165676512E-06, -1.607626743639530E-02, -5.958764015520840E-03, -5.192804020045961E-05,
2466259.500000000, A.D. 2040-Apr-15 00:00:00.0000, -9.074926489516306E-01, -4.229445371334419E-01,  5.342283360261005E-05,  6.514681659435644E-03, -1.538997705253763E-02,  5.230211983583722E-05,
2466355.500000000, A.D. 2040-Jul-20 00:00:00.0000,  4.655833836106550E-01, -9.047234937715023E-01,  8.354315845884637E-05,  1.554361015112353E-02,  7.572390348539057E-03, -5.482042603073806E-05,
2466451.500000000, A.D. 2040-Oct-24 00:00:00.0000,  8.565231791596112E-01,  5.093086348648900E-01,  3.441062921359956E-05, -9.587869793030404E-03,  1.489940883546498E-02,  4.769072106631987E-05,
2466547.500000000, A.D. 2041-Jan-28 00:00:00.0000, -6.052706092660349E-01,  7.752402385521825E-01, -1.345933681535646E-04, -1.328934257286886E-02, -1.079470432819602E-02, -4.760084546607845E-05,
2466643.500000000, A.D. 2041-May-04 00:00:00.0000, -7.330766317902297E-01, -6.894237243266244E-01,  2.325313491537949E-04,  1.096028183030087E-02, -1.251334961189871E-02,  4.224047588963284E-05,
2466739.500000000, A.D. 2041-Aug-08 00:00:00.0000,  7.199411627439590E-01, -7.160531901892306E-01, -7.660931799089135E-05,  1.241999574863308E-02,  1.208979416090540E-02, -3.921150110005327E-05,
2466835.500000000, A.D. 2041-Nov-12 00:00:00.0000,  6.439559192795058E-01,  7.540829124158136E-01,  1.286424599082885E-04, -1.391798861406468E-02,  1.109078924756336E-02,  2.675667105318368E-05,
2466931.500000000, A.D. 2042-Feb-16 00:00:00.0000, -8.271228215268992E-01,  5.376824981981509E-01, -2.375117473423663E-04, -9.098529902990917E-03, -1.443754918075721E-02, -2.101406587097825E-05,
2467027.500000000, A.D. 2042-May-23 00:00:00.0000, -4.847743408299178E-01, -8.867372531005910E-01,  3.173394051186090E-04,  1.426286556496636E-02, -8.432148895360068E-03,  1.155345553654266E-05,
2467123.500000000, A.D. 2042-Aug-27 00:00:00.0000,  9.031245956728020E-01, -4.566234422188895E-01, -1.881794792068712E-04,  8.022075126229308E-03,  1.543946453203490E-02, -6.127042264021310E-06,
2467219.500000000, A.D. 2042-Dec-01 00:00:00.0000,  3.631950087656604E-01,  9.185869427504580E-01,  1.230433340719203E-04, -1.680660481099996E-02,  6.048670196096885E-03, -8.229154851181804E-06,
2467315.500000000, A.D. 2043-Mar-07 00:00:00.0000, -9.605447429670262E-01,  2.425431075442676E-01, -2.459060344341507E-04, -3.996391959941807E-03, -1.650997302194570E-02,  1.526821331796427E-05,
2467411.500000000, A.D. 2043-Jun-11 00:00:00.0000, -1.881028069242602E-01, -9.960223205999038E-01,  2.838032304766909E-04,  1.613553217090204E-02, -3.560329226046456E-03, -2.538303758159954E-05,
2467507.500000000, A.D. 2043-Sep-15 00:00:00.0000,  9.960825820102381E-01, -1.515857274006393E-01, -1.950313701265598E-04,  2.751498549718221E-03,  1.726607176169267E-02,  2.833367924833904E-05,
2467603.500000000, A.D. 2043-Dec-20 00:00:00.0000,  4.359002315654204E-02,  9.844666349109537E-01,  2.657586998922720E-05, -1.790010137765090E-02,  3.110693437939363E-04, -4.047192840280651E-05,
2467699.500000000, A.D. 2044-Mar-25 00:00:00.0000, -9.925952903420349E-01, -7.807853291289771E-02, -1.338743245459361E-04,  1.441865843928520E-03, -1.682898857632896E-02,  4.390706347525424E-05,
2467795.500000000, A.D. 2044-Jun-29 00:00:00.0000,  1.271128486096985E-01, -1.007065105846958E+00,  1.589490807883819E-04,  1.642473450728805E-02,  1.634073907478716E-03, -5.107413098334501E-05,
2467891.500000000, A.D. 2044-Oct-03 00:00:00.0000,  9.881048190608633E-01,  1.689101861825117E-01, -9.985548944010434E-05, -2.884942190936844E-03,  1.734501480142564E-02,  4.768585680097997E-05,
2467987.500000000, A.D. 2045-Jan-07 00:00:00.0000, -2.807278209559919E-01,  9.440234264466151E-01, -1.102287758578389E-04, -1.705474653846970E-02, -5.482163023244473E-03, -5.431236642785618E-05,
2468083.500000000, A.D. 2045-Apr-13 00:00:00.0000, -9.215440969129606E-01, -3.905319129231781E-01,  5.926235612922063E-05,  6.638996858422836E-03, -1.541623902239386E-02,  5.133623408901778E-05,
2468179.500000000, A.D. 2045-Jul-18 00:00:00.0000,  4.299254973121718E-01, -9.191854348925065E-01,  5.274808738449291E-06,  1.510828487833371E-02,  6.668740251879833E-03, -5.346838594278905E-05,
